ONEWEB-0427             
1 50499U 21132AG  24342.79665704  .00000062  00000+0  12380-3 0  9999
2 50499  87.9105  86.1499 0001828 109.3966 250.7363 13.18686318148283
ONEWEB-0429             
1 50500U 21132AH  24342.78401159  .00000063  00000+0  12605-3 0  9994
2 50500  87.9112  86.1692 0001514  97.7114 262.4190 13.18685771148253
ONEWEB-0430             
1 50501U 21132AJ  24342.84881876  .00000057  00000+0  11088-3 0  9997
2 50501  87.9108  86.1548 0001364 116.1365 243.9907 13.18690204148309
ONEWEB-0432             
1 50502U 21132AK  24342.80455011  .00000027  00000+0  36348-4 0  9996
2 50502  87.9106  86.1547 0002156 132.4707 227.6607 13.18688812148250
ONEWEB-0440             
1 50503U 21132AL  24342.79191488  .00000058  00000+0  11473-3 0  9995
2 50503  87.9110  86.1510 0001747  87.8309 272.3023 13.18688638148246
ONEWEB-0450             
1 50504U 21132AM  24342.86158808  .00000086  00000+0  18459-3 0  9995
2 50504  87.9112  86.1659 0001262  98.7920 261.3355 13.18680953148287
ONEWEB-0410             
1 51622U 22012A   24342.90890434  .00000095  00000+0  21100-3 0  9995
2 51622  87.9090 116.6650 0003003 109.0245 251.1212 13.17651268140440
ONEWEB-0411             
1 51623U 22012B   24342.90133953  .00000350  00000+0  96679-3 0  9999
2 51623  87.8894 147.0511 0000969 112.9434 247.1796 13.10376356136438
